PERSEUS-M1              
1 40039U 14033AF  26169.30730818  .00001309  00000+0  12317-3 0  9990
2 40039  97.9641 113.4573 0010225 297.0546  62.9630 14.95633663650802
POLYITAN-1              
1 40042U 14033AJ  26169.61855686  .00015200  00000+0  47423-3 0  9990
2 40042  98.0940 196.0151 0008724 137.4054 222.7864 15.33297714653816
TIGRISAT                
1 40043U 14033AK  26169.39596375  .00001621  00000+0  19130-3 0  9999
2 40043  97.7831 319.3796 0050562  71.3546 289.3150 14.85166384645807
AEROCUBE 6A             
1 40045U 14033AM  26169.42618860  .00004013  00000+0  33873-3 0  9997
2 40045  97.7249 336.3614 0038811  13.8936 346.3344 14.98119366646809
AEROCUBE 6B             
1 40046U 14033AN  26169.42731216  .00003882  00000+0  31582-3 0  9997
2 40046  97.7247 336.1555 0038212   5.1104 355.0501 14.99579623646940
CANX-4                  
1 40055U 14034C   26169.63800544  .00000711  00000+0  98465-4 0  9994
2 40055  98.3120  45.0044 0013060  12.4887 347.6645 14.81266926644741
CANX-5                  
1 40056U 14034D   26169.63642176  .00000722  00000+0  99840-4 0  9990
2 40056  98.3121  45.0464 0013066  12.7135 347.4404 14.81284229635550
UKUBE-1                 
1 40074U 14037F   26169.68878940  .00007419  00000+0  41776-3 0  9992
2 40074  98.4234 173.1181 0002836 132.2061 227.9408 15.13574198648782
BRITE-PL2 (HEWELIUSZ)   
1 40119U 14049B   26169.57828691  .00001593  00000+0  15241-3 0  9996
2 40119  97.9099 281.5889 0015325 104.3589 255.9333 14.94597585641656
AEROCUBE 5C             
1 40965U 15058B   26169.51187757  .00001689  00000+0  15833-3 0  9994
2 40965  64.7674 258.4697 0130808  62.7526 298.6842 14.91458402365853
AEROCUBE 7              
1 40966U 15058C   26169.30384389  .00002407  00000+0  20050-3 0  9998
2 40966  64.7616 241.3183 0120511  61.2612 300.0548 14.95731068366129
FOX-1A (AO-85)          
1 40967U 15058D   26169.69405078  .00001823  00000+0  17186-3 0  9997
2 40967  64.7758 274.3012 0130534  56.0068 305.3365 14.90975407113797
SINOD-D 1               
1 40968U 15058E   26169.68278117  .00002478  00000+0  20562-3 0  9998
2 40968  64.7749 254.2293 0119134  52.4856 308.7015 14.95913324116881
SNAP-3 ALICE            
1 40970U 15058G   26169.51982895  .00105258  00000+0  12412-2 0  9992
2 40970  64.7502  99.3247 0027823  12.0699 348.1107 15.60328596117096
LMRST-SAT               
1 40971U 15058H   26169.31428060  .00001659  00000+0  15881-3 0  9994
2 40971  64.7763 271.8213 0132146  58.1750 303.2148 14.90593890113726
SNAP-3 EDDIE            
1 40972U 15058J   26169.50878684  .00105510  00000+0  11843-2 0  9991
2 40972  64.7423  90.0775 0027477  16.0390 344.1620 15.61614603119233
PROPCUBE 3              
1 40973U 15058K   26169.61480639  .00002059  00000+0  17894-3 0  9990
2 40973  64.7680 248.0755 0124113  59.3472 301.9808 14.94263418115018
BISONSAT                
1 40974U 15058L   26169.28639916  .00009843  00000+0  47758-3 0  9998
2 40974  64.7580 170.0907 0079142  46.8172 313.9529 15.16210467115788
SNAP-3 JIMI             
1 40975U 15058M   26169.25429956  .00003453  00000+0  24340-3 0  9990
2 40975  64.7633 216.3962 0106227  54.9329 306.1695 15.02305085114381
PROPCUBE 1 (FLORA)      
1 40976U 15058N   26169.67316493  .00001765  00000+0  17440-3 0  9995
2 40976  64.7755 290.6305 0130823  60.3454 301.0610 14.89227681116485
SINOD-D 3               
1 40977U 15058P   26169.57978559  .00002433  00000+0  21237-3 0  9994
2 40977  64.7729 271.4706 0119331  57.5879 303.6712 14.94023001114967
HORYU-4                 
1 41340U 16012D   26169.06253989  .00440932  72868-4  98167-3 0  9999
2 41340  30.9844  72.5998 0005941 278.9863  81.0127 15.96640257570954
RAVAN                   
1 41849U 16067B   26169.20219458  .00039399  00000+0  59216-3 0  9999
2 41849  97.9884  58.8909 0004242  28.9137 331.2350 15.54764284527854
CELTEE 1                
1 41850U 16067C   26169.12892573  .00003910  00000+0  18683-3 0  9990
2 41850  98.0668  35.7600 0000980 126.8812 233.2511 15.19689358526020
OPTICUBE 04             
1 41851U 16067D   26169.53737634  .00001956  00000+0  12559-3 0  9996
2 41851  98.0698  21.8916 0016939 111.3354 248.9683 15.09664347525371
AEROCUBE 8D             
1 41852U 16067E   26169.59967922  .00005942  00000+0  24560-3 0  9992
2 41852  98.0674  39.8781 0004791 119.8253 240.3459 15.24413704526283
AEROCUBE 8C             
1 41853U 16067F   26169.62443602  .00005974  00000+0  24500-3 0  9990
2 41853  98.0544  37.1301 0006548  65.0176 295.1739 15.24663119526283
CORVUS BC2              
1 42846U 17042X   26169.39059529  .00003135  00000+0  21696-3 0  9992
2 42846  97.4071 330.6929 0014434 106.7137 253.5676 15.06304598487247
CORVUS BC1              
1 42847U 17042Y   26169.51791200  .00002736  00000+0  18905-3 0  9991
2 42847  97.4106 331.6305 0013448  85.2271 275.0492 15.06474492487291
MAKERSAT 0              
1 43016U 17073D   26169.61677882  .00014158  00000+0  38538-3 0  9999
2 43016  97.4614  52.1465 0105020 267.8006  91.1207 15.32138108466689
